[{"OBJECT_NAME":"STARLINK-30808","OBJECT_ID":"2023-171W","EPOCH":"2026-03-09T16:00:03.000096","MEAN_MOTION":15.27571391,"ECCENTRICITY":0.00014166,"INCLINATION":42.9999,"RA_OF_ASC_NODE":285.5384,"ARG_OF_PERICENTER":255.7839,"MEAN_ANOMALY":282.5743,"EPHEMERIS_TYPE":0,"CLASSIFICATION_TYPE":"U","NORAD_CAT_ID":58250,"ELEMENT_SET_NO":999,"REV_AT_EPOCH":574,"BSTAR":0.00018538875,"MEAN_MOTION_DOT":4.841e-5,"MEAN_MOTION_DDOT":0},{"OBJECT_NAME":"GEOSCAN 4 (RS92S4)","OBJECT_ID":"2025-155S","EPOCH":"2026-03-09T21:50:07.724832","MEAN_MOTION":15.30369837,"ECCENTRICITY":0.00070968,"INCLINATION":97.4465,"RA_OF_ASC_NODE":37.7626,"ARG_OF_PERICENTER":154.7045,"MEAN_ANOMALY":205.4544,"EPHEMERIS_TYPE":0,"CLASSIFICATION_TYPE":"U","NORAD_CAT_ID":64892,"ELEMENT_SET_NO":999,"REV_AT_EPOCH":6562,"BSTAR":0.00068609503,"MEAN_MOTION_DOT":0.00020121,"MEAN_MOTION_DDOT":0}]
